ENDUROSAT ONE           
1 43551U 98067NZ  20219.71060943  .00078585  00000-0  29703-3 0  9999
2 43551  51.6328  16.8978 0004422 294.7050  65.3493 15.86995704118344
EQUISAT                 
1 43552U 98067PA  20219.71771559  .00033892  00000-0  20842-3 0  9999
2 43552  51.6314  29.9263 0004048 287.2468  72.8089 15.76881512118137
AEROCUBE 12A            
1 43556U 18046C   20220.19253460  .00000951  00000-0  44690-4 0  9990
2 43556  51.6408 221.7398 0008585 115.7750 244.4117 15.29927393115148
AEROCUBE 12B            
1 43557U 18046D   20220.19765655  .00000826  00000-0  40782-4 0  9994
2 43557  51.6411 222.5101 0008635 115.4259 244.7616 15.29630838115086
UITMSAT-1               
1 43589U 98067PD  20219.76111306  .00053077  00000-0  27071-3 0  9990
2 43589  51.6348  26.2615 0003493 303.0586  57.0080 15.80835889113925
MAYA-1                  
1 43590U 98067PE  20219.50110831  .00050426  00000-0  25774-3 0  9999
2 43590  51.6298  27.4954 0003429 298.1695  61.8961 15.80810858113812
BHUTAN-1                
1 43591U 98067PF  20219.84705605  .00054699  00000-0  27594-3 0  9994
2 43591  51.6356  25.4187 0003637 305.9493  54.1172 15.81061090113870
SIRIUSSAT-1             
1 43595U 98067PG  20219.99655107  .00042905  00000-0  25360-3 0  9991
2 43595  51.6283  30.8581 0002078 274.2850  85.7913 15.77667748112996
SIRIUSSAT-2             
1 43596U 98067PH  20219.87185438  .00043994  00000-0  26123-3 0  9991
2 43596  51.6278  32.3512 0002176 271.6183  88.4568 15.77552869112961
TANUSHA-3               
1 43597U 98067PJ  20220.00218275  .00203405  27661-4  46773-3 0  9999
2 43597  51.6248  12.5609 0006023 301.7498  58.2923 15.96841829113234
SURFSAT                 
1 43614U 18070B   20219.78871598  .00002778  00000-0  70961-4 0  9992
2 43614  93.0239 175.4026 0017097 134.7659 225.4990 15.39393371106226
CP7 (DAVE)              
1 43615U 18070C   20219.36997586  .00002605  00000-0  66887-4 0  9994
2 43615  93.0239 175.2165 0017207 135.8834 224.3796 15.39234076106159
ELFIN-B                 
1 43616U 18070D   20220.14475112  .00003499  00000-0  85602-4 0  9997
2 43616  93.0203 175.4967 0017689 134.3534 225.9174 15.40682047106321
ELFIN-A                 
1 43617U 18070E   20219.78204319  .00004254  00000-0  10335-3 0  9995
2 43617  93.0254 175.9005 0017134 132.4228 227.8480 15.40885067106272
CUBEBEL-1 (BSUSAT-1)    
1 43666U 18083E   20220.11337856  .00001064  00000-0  55061-4 0  9997
2 43666  97.4866 246.0742 0015012 177.6450 259.4951 15.18342832 98303
CICERO 10               
1 43690U 18088A   20219.97872220  .00000863  00000-0  37765-4 0  9997
2 43690  85.0359  45.0222 0016822 120.2806 240.0102 15.20293087 96413
IRVINE01                
1 43693U 18088D   20220.01967910  .00002328  00000-0  96639-4 0  9991
2 43693  85.0335  43.5292 0020013 103.4268 256.9207 15.23060470 96549
PROXIMA I               
1 43694U 18088E   20219.45285130  .00000989  00000-0  41209-4 0  9999
2 43694  85.0303  43.7748 0021467  98.5475 261.8201 15.22042826 96443
PROXIMA II              
1 43696U 18088G   20219.97697607  .00001006  00000-0  41944-4 0  9991
2 43696  85.0305  43.4320 0021511  96.7527 263.6164 15.22045638 96529
FACSAT-1                
1 43721U 18096C   20220.18397484  .00001291  00000-0  50852-4 0  9998
2 43721  97.4184 293.4810 0016063 306.8336  53.1430 15.27340043 94136
CENTAURI-2              
1 43722U 18096D   20220.19170784  .00001733  00000-0  66200-4 0  9997
2 43722  97.4196 293.8140 0016029 306.4290  53.5471 15.27899883 94148
INNOSAT-2               
1 43738U 18096V   20220.19715251  .00002455  00000-0  85270-4 0  9998
2 43738  97.4216 296.0036 0021812 312.0056  47.9327 15.30538870 94299
SIRION PATHFINDER-2     
1 43759U 18099B   20219.83384291 -.00000020  00000-0  34076-5 0  9995
2 43759  97.7030 290.6283 0014776  21.0758 339.1068 14.95298994 91464
CORVUS-BC 4             
1 43767U 18099K   20219.86064177  .00000137  00000-0  17827-4 0  9997
2 43767  97.7007 290.0108 0012285  26.0359 334.1477 14.94741061 91435
MOVE-II                 
1 43780U 18099Y   20219.84248405  .00000020  00000-0  70354-5 0  9994
2 43780  97.7039 290.5837 0014235  32.2679 327.9410 14.95444365 91446
SPACEBEE-7              
1 43816U 18099BL  20220.17343826 -.00000039  00000-0  17056-5 0  9996
2 43816  97.7053 291.3313 0013718  16.2429 343.9229 14.95731532 91070
SPACEBEE-5              
1 43817U 18099BM  20219.83781719  .00000593  00000-0  57433-4 0  9991
2 43817  97.7110 291.5300 0013404  18.0745 342.0950 14.96391827 91044
SPACEBEE-6              
1 43818U 18099BN  20219.66194856  .00000413  00000-0  41955-4 0  9996
2 43818  97.7065 290.9924 0013465  17.5355 342.6328 14.95932108 91156
SHIELDS 1               
1 43850U 18104B   20219.78164741  .00000470  00000-0  19109-4 0  9991
2 43850  85.0317 142.0929 0012746 241.3997 118.5963 15.21424204 91129
STF-1                   
1 43852U 18104D   20219.53429019  .00001076  00000-0  46195-4 0  9996
2 43852  85.0358 142.8295 0012197 259.9210 100.0656 15.21367148 91064
ZACUBE-2                
1 43907U 18111AH  20220.18648942  .00000443  00000-0  20696-4 0  9991
2 43907  97.2602 118.4108 0020576 328.7135  31.2877 15.24632754 89748
LUME 1                  
1 43908U 18111AJ  20219.76704222  .00001009  00000-0  42907-4 0  9996
2 43908  97.2603 118.2102 0020325 329.7742  30.2322 15.25122690 89691
AOBA VELOX-IV           
1 43940U 19003J   20219.57212901  .00001963  00000-0  80416-4 0  9996
2 43940  97.2238 269.1244 0025027  49.3766 310.9644 15.25164915 86282
CATSAT-2                
1 44029U 98067PV  20219.60300081  .00019555  00000-0  18759-3 0  9999
2 44029  51.6384  61.6073 0003045 275.0420  85.0229 15.66637941 86382
DELPHINI                
1 44030U 98067PW  20219.58526638  .00021238  00000-0  19358-3 0  9993
2 44030  51.6336  59.8482 0003032 269.9390  90.1259 15.67847538 86373
UNITE                   
1 44031U 98067PX  20219.79695006  .00010328  00000-0  12134-3 0  9996
2 44031  51.6374  68.1149 0002264 263.1759  96.8977 15.62099213 86284
CATSAT-1                
1 44033U 98067PZ  20220.11315169  .00021637  00000-0  20665-3 0  9998
2 44033  51.6383  59.0222 0002972 277.9331  82.1328 15.66674029 86378
RAAVANA-1               
1 44329U 98067QE  20219.02259697  .00010845  00000-0  14447-3 0  9997
2 44329  51.6393  85.5102 0005631 181.5593 178.5383 15.58700626 64734
UGUISU                  
1 44330U 98067QF  20219.99972484  .00010312  00000-0  13808-3 0  9990
2 44330  51.6370  80.7691 0005663 185.3452 174.7481 15.58625373 64868
NEPALISAT-1             
1 44331U 98067QG  20219.84790837  .00010597  00000-0  14114-3 0  9991
2 44331  51.6371  81.2572 0005664 188.1340 171.9562 15.58734914 64852
SPOOQY-1                
1 44332U 98067QH  20220.17516346  .00009793  00000-0  13147-3 0  9992
2 44332  51.6378  79.6952 0004714 190.1330 169.9568 15.58629835 64869
SPACEBEE-9              
1 44370U 19037F   20220.14131516  .00008377  00000-0  18665-3 0  9990
2 44370  45.0054 192.2104 0011756 124.1808 236.0197 15.44046510 62434
SPACEBEE-8              
1 44371U 19037G   20219.93722524  .00018433  00000-0  33962-3 0  9992
2 44371  45.0058 185.6377 0010303 125.1602 235.0256 15.48888144 62477
IOD-1 GEMS              
1 44385U 98067QK  20219.82221774  .00017920  00000-0  21054-3 0  9995
2 44385  51.6394  78.8976 0002549 146.7958 213.3197 15.61529326 62362
MOVE-IIB                
1 44398U 19038N   20219.83667408  .00001324  00000-0  79560-4 0  9996
2 44398  97.5393 180.4375 0024049 317.3765  42.5599 15.12415152 60192
SONATE                  
1 44400U 19038Q   20219.88403621  .00000473  00000-0  31262-4 0  9991
2 44400  97.5434 180.4959 0024074 315.4664  44.4631 15.11998422 60198
LUCKY-7                 
1 44406U 19038W   20220.02311032  .00000601  00000-0  38385-4 0  9995
2 44406  97.5428 180.7541 0023471 314.6512  45.2805 15.12271237 60214
BEESAT 9                
1 44412U 19038AC  20219.62187687  .00000829  00000-0  51353-4 0  9995
2 44412  97.5418 180.3394 0021718 322.4763  37.4951 15.12366537 59850
JAISAT-1                
1 44419U 19038F   20219.75843082  .00000834  00000-0  51006-4 0  9995
2 44419  97.5420 180.7768 0020548 321.1864  38.7890 15.12850381 60209
SWIATOWID               
1 44426U 98067QL  20220.20731661  .00025724  00000-0  28607-3 0  9998
2 44426  51.6409  75.9685 0002821 137.9983 327.3721 15.62700683 62449
KRAKSAT                 
1 44427U 98067QM  20220.14299973  .00008809  00000-0  12832-3 0  9995
2 44427  51.6436  83.8419 0003893 136.1866 314.1805 15.56566248 62373
VCC A                   
1 44428U 98067QN  20219.22841344  .00009704  00000-0  13324-3 0  9990
2 44428  51.6399  86.1801 0002815 151.2744 208.8403 15.58036615 62262
ENTRYSAT                
1 44429U 98067QP  20220.18941775  .00012137  00000-0  15781-3 0  9990
2 44429  51.6387  79.8144 0002601 149.0804 211.0342 15.59223526 62431
VCC C                   
1 44430U 98067QQ  20219.99360811  .00016788  00000-0  20459-3 0  9999
2 44430  51.6379  79.2652 0002299 165.8509 194.2549 15.60624409 61249
VCC B                   
1 44431U 98067QR  20217.36664895  .00012389  00000-0  16820-3 0  9998
2 44431  51.6389  95.4771 0002889 142.1020 218.0176 15.58041888 61910
ATL-1                   
1 44830U 19084G   20219.70508501  .00086604  44922-5  37185-3 0  9998
2 44830  96.9648  89.5138 0020501  48.7914 311.5120 15.84811860 38396
SMOG-P                  
1 44832U 19084J   20219.70654371  .00110467  61965-5  41897-3 0  9993
2 44832  96.9646  89.8254 0018228  47.8128 312.4688 15.87408890 38418
DUCHIFAT-3              
1 44854U 19089C   20220.11618000  .00000336  00000-0  33562-4 0  9990
2 44854  36.9672 158.9382 0007281 111.6405 248.5126 14.99096546 35900
EYESAT-NANO             
1 44877U 19092E   20220.06876482  .00000948  00000-0  51423-4 0  9998
2 44877  97.4564  42.5426 0013078 196.6579 163.4226 15.16906144 35269
